SWAS                    
1 25560U 98071A   26068.53487068  .00004636  00000+0  29986-3 0  9991
2 25560  69.8952 124.3662 0004099  14.3215 345.8065 15.08888192482231
STARLINK-4557           
1 53432U 22097AW  26068.46764176 -.00001024  00000+0 -46282-4 0  9994
2 53432  53.2167 104.8783 0001269  91.0838 269.0300 15.08842876198750
